{"type":"FeatureCollection","features":[{"type":"Feature","geometry":{"type":"MultiPolygon","coordinates":[[[[104.035,10.071],[104.03,10.033],[104.009,10.015],[103.992,10.047],[103.961,10.207],[103.948,10.243],[103.915,10.288],[103.86,10.305],[103.842,10.357],[103.846,10.375],[103.922,10.36],[103.949,10.404],[103.967,10.409],[103.973,10.44],[103.995,10.452],[104.02,10.426],[104.057,10.403],[104.079,10.37],[104.073,10.338],[104.08,10.307],[104.081,10.245],[104.051,10.188],[104.036,10.119],[104.02,10.085],[104.035,10.071]]],[[[105.189,10.912],[105.19,10.855],[105.209,10.849],[105.237,10.805],[105.262,10.795],[105.269,10.766],[105.3,10.762],[105.28,10.722],[105.334,10.723],[105.351,10.713],[105.338,10.669],[105.347,10.624],[105.369,10.576],[105.419,10.55],[105.446,10.553],[105.482,10.536],[105.513,10.547],[105.55,10.521],[105.574,10.469],[105.555,10.434],[105.524,10.399],[105.529,10.378],[105.5,10.354],[105.495,10.325],[105.477,10.311],[105.427,10.303],[105.441,10.27],[105.336,10.234],[105.301,10.277],[105.267,10.239],[105.253,10.239],[105.226,10.201],[105.298,10.139],[105.317,10.141],[105.353,10.101],[105.365,10.073],[105.54,9.913],[105.517,9.863],[105.477,9.833],[105.431,9.814],[105.434,9.791],[105.405,9.768],[105.412,9.75],[105.37,9.73],[105.328,9.698],[105.338,9.677],[105.387,9.658],[105.406,9.642],[105.374,9.596],[105.352,9.594],[105.309,9.608],[105.313,9.572],[105.33,9.528],[105.299,9.505],[105.291,9.468],[105.262,9.399],[105.132,9.481],[105.003,9.559],[104.996,9.541],[104.963,9.556],[104.946,9.533],[104.917,9.562],[104.881,9.494],[104.835,9.531],[104.851,9.681],[104.876,9.77],[104.888,9.831],[104.904,9.853],[104.955,9.855],[105.004,9.905],[105.058,9.946],[105.103,9.953],[105.08,10.003],[104.991,10.099],[104.894,10.086],[104.869,10.103],[104.816,10.184],[104.774,10.217],[104.733,10.228],[104.684,10.197],[104.638,10.141],[104.616,10.148],[104.596,10.184],[104.586,10.244],[104.572,10.27],[104.543,10.292],[104.521,10.333],[104.482,10.377],[104.465,10.377],[104.439,10.424],[104.48,10.43],[104.498,10.405],[104.517,10.44],[104.542,10.448],[104.559,10.493],[104.587,10.526],[104.644,10.541],[104.687,10.539],[104.754,10.519],[104.868,10.522],[104.898,10.549],[104.952,10.636],[105.098,10.722],[105.091,10.755],[105.064,10.78],[105.058,10.82],[105.028,10.892],[105.079,10.952],[105.113,10.962],[105.109,10.918],[105.156,10.923],[105.189,10.912]]]]},"properties":{"name":"An Giang","level":"province"}},{"type":"Feature","geometry":{"type":"Polygon","coordinates":[[[106.001,21],[106.02,21.048],[106,21.074],[105.977,21.07],[105.946,21.085],[105.913,21.127],[105.926,21.14],[105.907,21.192],[105.909,21.231],[105.938,21.247],[105.923,21.288],[105.893,21.327],[105.881,21.339],[105.909,21.374],[105.936,21.371],[105.94,21.397],[105.979,21.414],[106.027,21.399],[106.027,21.434],[106.051,21.46],[106.038,21.49],[106.054,21.539],[106.049,21.581],[106.059,21.604],[106.1,21.625],[106.117,21.617],[106.162,21.625],[106.185,21.604],[106.169,21.596],[106.169,21.512],[106.242,21.486],[106.285,21.49],[106.283,21.456],[106.333,21.438],[106.324,21.41],[106.372,21.395],[106.416,21.408],[106.406,21.429],[106.439,21.443],[106.483,21.449],[106.495,21.483],[106.521,21.5],[106.507,21.521],[106.527,21.558],[106.571,21.603],[106.67,21.609],[106.702,21.594],[106.699,21.574],[106.734,21.545],[106.784,21.576],[106.806,21.559],[106.843,21.56],[106.86,21.523],[106.845,21.494],[106.89,21.49],[106.891,21.451],[106.911,21.431],[106.987,21.44],[107.004,21.422],[106.986,21.402],[106.988,21.359],[107.032,21.325],[107.02,21.299],[106.972,21.284],[106.986,21.257],[106.93,21.171],[106.916,21.184],[106.874,21.174],[106.857,21.188],[106.825,21.188],[106.819,21.156],[106.795,21.149],[106.682,21.167],[106.641,21.181],[106.61,21.17],[106.58,21.192],[106.542,21.192],[106.529,21.223],[106.502,21.224],[106.426,21.232],[106.413,21.208],[106.374,21.195],[106.36,21.172],[106.31,21.179],[106.323,21.153],[106.296,21.105],[106.311,21.059],[106.293,21.019],[106.273,21.004],[106.175,20.975],[106.138,21.001],[106.127,20.984],[106.09,21.007],[106.051,21.007],[106.029,20.993],[106.001,21]]]},"properties":{"name":"Bắc Ninh","level":"province"}},{"type":"Feature","geometry":{"type":"Polygon","coordinates":[[[104.835,9.531],[104.881,9.494],[104.917,9.562],[104.946,9.533],[104.963,9.556],[104.996,9.541],[105.003,9.559],[105.132,9.481],[105.262,9.399],[105.291,9.468],[105.299,9.505],[105.33,9.528],[105.313,9.572],[105.309,9.608],[105.352,9.594],[105.374,9.596],[105.443,9.595],[105.475,9.585],[105.535,9.597],[105.555,9.568],[105.545,9.451],[105.58,9.411],[105.639,9.409],[105.705,9.378],[105.745,9.406],[105.772,9.411],[105.786,9.383],[105.811,9.371],[105.847,9.399],[105.86,9.365],[105.812,9.339],[105.827,9.245],[105.752,9.205],[105.599,9.14],[105.542,9.12],[105.461,9.066],[105.395,8.996],[105.388,8.957],[105.347,8.861],[105.327,8.83],[105.269,8.77],[105.209,8.753],[105.179,8.737],[105.106,8.635],[105.063,8.625],[105.001,8.599],[104.838,8.561],[104.802,8.58],[104.748,8.591],[104.717,8.608],[104.713,8.632],[104.73,8.65],[104.757,8.64],[104.796,8.652],[104.779,8.695],[104.794,8.727],[104.865,8.745],[104.889,8.797],[104.817,8.773],[104.782,8.806],[104.784,8.838],[104.799,8.897],[104.805,8.981],[104.802,9.015],[104.81,9.138],[104.808,9.18],[104.82,9.24],[104.835,9.531]]]},"properties":{"name":"Cà Mau","level":"province"}},{"type":"Feature","geometry":{"type":"Polygon","coordinates":[[[105.827,9.245],[105.812,9.339],[105.86,9.365],[105.847,9.399],[105.811,9.371],[105.786,9.383],[105.772,9.411],[105.745,9.406],[105.705,9.378],[105.639,9.409],[105.58,9.411],[105.545,9.451],[105.555,9.568],[105.535,9.597],[105.475,9.585],[105.443,9.595],[105.374,9.596],[105.406,9.642],[105.387,9.658],[105.338,9.677],[105.328,9.698],[105.37,9.73],[105.412,9.75],[105.405,9.768],[105.434,9.791],[105.431,9.814],[105.477,9.833],[105.517,9.863],[105.54,9.913],[105.365,10.073],[105.353,10.101],[105.317,10.141],[105.298,10.139],[105.226,10.201],[105.253,10.239],[105.267,10.239],[105.301,10.277],[105.336,10.234],[105.441,10.27],[105.427,10.303],[105.477,10.311],[105.495,10.325],[105.542,10.293],[105.605,10.233],[105.625,10.186],[105.682,10.134],[105.781,10.07],[105.826,10.005],[105.877,9.951],[105.919,9.931],[105.962,9.901],[105.996,9.866],[106.023,9.826],[106.069,9.779],[106.1,9.76],[106.172,9.686],[106.248,9.617],[106.3,9.586],[106.266,9.506],[106.21,9.478],[106.186,9.417],[106.187,9.379],[106.137,9.336],[106.103,9.337],[105.922,9.282],[105.827,9.245]]]},"properties":{"name":"Cần Thơ","level":"province"}},{"type":"Feature","geometry":{"type":"Polygon","coordinates":[[[105.532,22.633],[105.499,22.634],[105.47,22.756],[105.45,22.759],[105.387,22.81],[105.329,22.832],[105.301,22.856],[105.312,22.916],[105.362,22.94],[105.362,22.979],[105.441,23.004],[105.488,23.009],[105.52,23.075],[105.527,23.108],[105.565,23.119],[105.568,23.077],[105.618,23.067],[105.646,23.081],[105.667,23.068],[105.721,23.064],[105.732,23.039],[105.779,23.023],[105.807,22.99],[105.821,22.997],[105.855,22.97],[105.873,22.933],[105.958,22.95],[105.999,22.942],[106.002,22.991],[106.057,22.991],[106.076,22.999],[106.116,22.986],[106.136,22.996],[106.204,22.983],[106.236,22.955],[106.286,22.868],[106.327,22.875],[106.433,22.882],[106.454,22.904],[106.497,22.905],[106.514,22.947],[106.542,22.943],[106.566,22.919],[106.602,22.929],[106.618,22.898],[106.653,22.866],[106.666,22.89],[106.705,22.889],[106.707,22.865],[106.785,22.814],[106.819,22.82],[106.832,22.796],[106.818,22.771],[106.796,22.77],[106.764,22.733],[106.765,22.704],[106.741,22.67],[106.707,22.578],[106.649,22.577],[106.63,22.605],[106.61,22.605],[106.6,22.552],[106.582,22.52],[106.582,22.483],[106.559,22.465],[106.561,22.422],[106.535,22.419],[106.52,22.398],[106.498,22.405],[106.487,22.368],[106.453,22.357],[106.396,22.374],[106.361,22.357],[106.344,22.392],[106.296,22.426],[106.276,22.448],[106.24,22.461],[106.201,22.432],[106.185,22.387],[106.168,22.409],[106.14,22.394],[106.111,22.399],[106.094,22.442],[106.12,22.472],[106.119,22.511],[106.102,22.516],[106.082,22.573],[106.059,22.571],[105.969,22.535],[105.932,22.528],[105.911,22.496],[105.857,22.521],[105.804,22.524],[105.773,22.562],[105.778,22.577],[105.729,22.634],[105.773,22.684],[105.739,22.742],[105.7,22.72],[105.663,22.723],[105.642,22.7],[105.601,22.687],[105.603,22.667],[105.564,22.666],[105.532,22.633]]]},"properties":{"name":"Cao Bằng","level":"province"}},{"type":"Feature","geometry":{"type":"MultiPolygon","coordinates":[[[[112.574,16.056],[112.524,16.021],[112.465,16.01],[112.448,16.043],[112.576,16.079],[112.574,16.056]],[[112.498,16.046],[112.453,16.036],[112.471,16.014],[112.531,16.028],[112.498,16.046]]],[[[111.772,16.037],[111.748,16.048],[111.773,16.078],[111.808,16.08],[111.806,16.047],[111.772,16.037]]],[[[107.911,16.216],[107.928,16.2],[107.931,16.197],[107.932,16.197],[107.948,16.192],[107.95,16.191],[107.988,16.214],[107.992,16.211],[108.006,16.205],[108.012,16.197],[108.038,16.191],[108.04,16.189],[108.045,16.187],[108.055,16.181],[108.086,16.183],[108.105,16.186],[108.109,16.184],[108.114,16.183],[108.157,16.207],[108.194,16.209],[108.194,16.21],[108.195,16.2],[108.179,16.2],[108.154,16.187],[108.127,16.142],[108.145,16.097],[108.189,16.074],[108.24,16.109],[108.215,16.117],[108.23,16.147],[108.257,16.153],[108.299,16.126],[108.324,16.14],[108.338,16.119],[108.25,16.089],[108.25,16.049],[108.293,15.96],[108.33,15.921],[108.406,15.872],[108.413,15.819],[108.427,15.785],[108.526,15.628],[108.575,15.564],[108.618,15.515],[108.692,15.482],[108.696,15.443],[108.739,15.399],[108.721,15.375],[108.672,15.364],[108.655,15.369],[108.602,15.346],[108.508,15.326],[108.482,15.308],[108.412,15.316],[108.392,15.299],[108.322,15.302],[108.299,15.279],[108.29,15.234],[108.309,15.221],[108.298,15.17],[108.226,15.029],[108.177,15.06],[108.146,15.046],[108.162,14.974],[108.149,14.962],[108.088,14.951],[108.047,14.992],[107.992,14.998],[107.965,15.02],[107.955,15.058],[107.976,15.069],[108.004,15.142],[107.999,15.157],[107.95,15.175],[107.929,15.209],[107.891,15.193],[107.872,15.21],[107.829,15.209],[107.739,15.229],[107.729,15.286],[107.662,15.357],[107.662,15.384],[107.624,15.414],[107.603,15.421],[107.565,15.395],[107.518,15.417],[107.527,15.443],[107.514,15.474],[107.466,15.499],[107.438,15.504],[107.415,15.491],[107.382,15.498],[107.365,15.57],[107.334,15.623],[107.291,15.624],[107.265,15.655],[107.277,15.707],[107.245,15.745],[107.213,15.742],[107.229,15.784],[107.222,15.836],[107.308,15.87],[107.321,15.887],[107.371,15.899],[107.399,15.894],[107.428,15.93],[107.435,15.961],[107.467,16.025],[107.495,16.039],[107.512,16.016],[107.545,16.011],[107.571,16.055],[107.62,16.063],[107.633,16.03],[107.664,16.018],[107.68,15.998],[107.708,15.996],[107.727,16.03],[107.787,16.068],[107.819,16.058],[107.82,16.081],[107.854,16.115],[107.858,16.154],[107.873,16.161],[107.874,16.198],[107.911,16.216]]],[[[111.802,16.274],[111.801,16.241],[111.775,16.248],[111.742,16.276],[111.667,16.276],[111.65,16.27],[111.604,16.224],[111.648,16.232],[111.668,16.222],[111.624,16.193],[111.578,16.182],[111.561,16.215],[111.639,16.283],[111.656,16.29],[111.782,16.295],[111.802,16.274]]],[[[112.078,16.339],[112.059,16.332],[112.019,16.341],[111.972,16.321],[111.949,16.343],[111.978,16.359],[112.032,16.366],[112.065,16.356],[112.078,16.339]]],[[[111.609,16.438],[111.58,16.474],[111.598,16.486],[111.619,16.449],[111.609,16.438]]],[[[111.381,16.709],[111.367,16.742],[111.396,16.745],[111.403,16.719],[111.381,16.709]]],[[[112.282,16.976],[112.21,16.967],[112.211,16.997],[112.244,17.002],[112.282,16.976]]],[[[111.56,17.098],[111.492,17.066],[111.459,17.066],[111.451,17.094],[111.51,17.114],[111.535,17.115],[111.56,17.098]]]]},"properties":{"name":"Đà Nẵng","level":"province"}},{"type":"Feature","geometry":{"type":"Polygon","coordinates":[[[107.56,12.795],[107.541,12.835],[107.527,12.84],[107.491,12.898],[107.502,12.915],[107.485,12.943],[107.498,12.982],[107.49,13.034],[107.607,13.304],[107.649,13.341],[107.704,13.375],[107.764,13.365],[107.798,13.389],[107.839,13.401],[107.852,13.389],[107.907,13.389],[107.944,13.374],[107.989,13.392],[108.008,13.381],[108.053,13.412],[108.073,13.4],[108.109,13.412],[108.162,13.4],[108.213,13.368],[108.264,13.372],[108.288,13.351],[108.353,13.33],[108.372,13.303],[108.377,13.267],[108.405,13.26],[108.437,13.179],[108.464,13.162],[108.467,13.136],[108.519,13.071],[108.513,13.034],[108.568,13.02],[108.592,13.029],[108.613,13.008],[108.645,13.01],[108.682,12.999],[108.757,13.033],[108.749,13.092],[108.759,13.129],[108.813,13.159],[108.837,13.162],[108.864,13.225],[108.873,13.279],[108.853,13.293],[108.84,13.323],[108.808,13.357],[108.806,13.434],[108.796,13.471],[108.735,13.457],[108.703,13.485],[108.749,13.567],[108.815,13.576],[108.87,13.546],[108.923,13.54],[108.962,13.518],[108.994,13.517],[109.028,13.531],[109.053,13.569],[109.093,13.572],[109.115,13.614],[109.152,13.634],[109.156,13.678],[109.191,13.693],[109.234,13.67],[109.227,13.639],[109.249,13.6],[109.282,13.572],[109.279,13.534],[109.302,13.519],[109.288,13.496],[109.319,13.463],[109.31,13.418],[109.266,13.415],[109.293,13.45],[109.248,13.494],[109.228,13.48],[109.223,13.441],[109.249,13.368],[109.296,13.355],[109.283,13.324],[109.313,13.266],[109.293,13.215],[109.304,13.189],[109.293,13.166],[109.301,13.127],[109.331,13.088],[109.377,13.008],[109.455,12.914],[109.454,12.862],[109.421,12.873],[109.388,12.843],[109.371,12.862],[109.326,12.841],[109.281,12.832],[109.259,12.838],[109.226,12.813],[109.208,12.83],[109.163,12.824],[109.141,12.783],[109.116,12.797],[109.081,12.742],[109.065,12.752],[108.963,12.684],[108.943,12.694],[108.902,12.672],[108.912,12.641],[108.875,12.625],[108.863,12.595],[108.897,12.564],[108.858,12.492],[108.877,12.481],[108.863,12.453],[108.799,12.482],[108.779,12.506],[108.751,12.498],[108.738,12.476],[108.715,12.484],[108.673,12.432],[108.686,12.387],[108.677,12.348],[108.68,12.317],[108.663,12.298],[108.596,12.277],[108.541,12.297],[108.509,12.278],[108.493,12.305],[108.427,12.252],[108.387,12.241],[108.37,12.254],[108.336,12.248],[108.332,12.231],[108.3,12.209],[108.278,12.214],[108.238,12.176],[108.209,12.173],[108.153,12.188],[108.12,12.175],[108.086,12.225],[108.068,12.265],[108.04,12.289],[107.974,12.297],[107.934,12.343],[107.934,12.367],[107.913,12.398],[107.924,12.421],[107.953,12.442],[107.984,12.446],[108.001,12.475],[107.974,12.509],[107.94,12.527],[107.905,12.528],[107.893,12.564],[107.931,12.582],[107.921,12.645],[107.895,12.711],[107.909,12.743],[107.86,12.757],[107.849,12.812],[107.803,12.78],[107.77,12.778],[107.689,12.79],[107.635,12.804],[107.56,12.795]]]},"properties":{"name":"Đắk Lắk","level":"province"}},{"type":"Feature","geometry":{"type":"Polygon","coordinates":[[[102.322,22.547],[102.361,22.477],[102.387,22.467],[102.398,22.419],[102.427,22.371],[102.449,22.361],[102.515,22.261],[102.554,22.244],[102.579,22.261],[102.619,22.236],[102.617,22.203],[102.64,22.177],[102.677,22.169],[102.698,22.209],[102.695,22.245],[102.729,22.238],[102.752,22.204],[102.737,22.164],[102.744,22.131],[102.768,22.117],[102.778,22.089],[102.828,22.064],[102.868,22.078],[102.935,22.084],[102.97,22.03],[103.022,22.056],[103.039,22.048],[103.09,22.07],[103.103,22.102],[103.133,22.074],[103.211,22.07],[103.277,22.039],[103.273,22.072],[103.285,22.103],[103.337,22.154],[103.389,22.157],[103.405,22.129],[103.42,22.075],[103.453,22.054],[103.469,22.027],[103.452,22.009],[103.475,21.979],[103.497,21.97],[103.48,21.909],[103.495,21.875],[103.522,21.861],[103.548,21.799],[103.541,21.777],[103.573,21.74],[103.586,21.7],[103.557,21.656],[103.56,21.627],[103.519,21.565],[103.517,21.533],[103.464,21.52],[103.452,21.502],[103.457,21.458],[103.443,21.432],[103.392,21.437],[103.342,21.428],[103.34,21.4],[103.363,21.372],[103.372,21.341],[103.399,21.317],[103.433,21.311],[103.441,21.282],[103.431,21.252],[103.438,21.191],[103.396,21.151],[103.402,21.105],[103.424,21.071],[103.371,21.063],[103.335,21.091],[103.294,21.099],[103.302,21.063],[103.275,21.057],[103.292,21.017],[103.3,20.964],[103.277,20.938],[103.29,20.908],[103.246,20.892],[103.217,20.895],[103.182,20.905],[103.124,20.907],[103.084,20.945],[103.072,20.981],[103.036,21.055],[102.969,21.07],[102.95,21.139],[102.928,21.162],[102.904,21.166],[102.911,21.206],[102.894,21.243],[102.864,21.258],[102.824,21.245],[102.808,21.264],[102.852,21.3],[102.897,21.303],[102.892,21.331],[102.897,21.387],[102.917,21.406],[102.931,21.445],[102.87,21.428],[102.884,21.462],[102.914,21.503],[102.961,21.547],[102.993,21.59],[102.981,21.648],[102.99,21.71],[102.973,21.736],[102.887,21.713],[102.857,21.721],[102.86,21.798],[102.853,21.84],[102.818,21.84],[102.827,21.736],[102.789,21.707],[102.762,21.675],[102.736,21.659],[102.709,21.665],[102.675,21.655],[102.649,21.735],[102.663,21.791],[102.648,21.808],[102.647,21.856],[102.612,21.875],[102.62,21.9],[102.586,21.928],[102.505,21.973],[102.489,21.997],[102.509,22.037],[102.484,22.043],[102.442,22.078],[102.432,22.116],[102.385,22.131],[102.384,22.15],[102.336,22.166],[102.331,22.196],[102.242,22.239],[102.232,22.285],[102.178,22.305],[102.172,22.371],[102.145,22.399],[102.154,22.424],[102.185,22.436],[102.207,22.428],[102.266,22.431],[102.252,22.464],[102.322,22.547]]]},"properties":{"name":"Điện Biên","level":"province"}},{"type":"Feature","geometry":{"type":"Polygon","coordinates":[[[106.424,11.495],[106.427,11.533],[106.441,11.546],[106.475,11.549],[106.49,11.571],[106.47,11.614],[106.452,11.671],[106.453,11.691],[106.422,11.739],[106.417,11.774],[106.448,11.827],[106.441,11.859],[106.466,11.87],[106.415,11.967],[106.444,11.987],[106.493,11.969],[106.638,11.973],[106.657,11.987],[106.684,11.964],[106.71,11.968],[106.745,12.001],[106.792,12.082],[106.826,12.082],[106.855,12.066],[106.886,12.074],[106.916,12.063],[106.945,12.067],[107,12.095],[107.045,12.132],[107.072,12.182],[107.13,12.224],[107.153,12.267],[107.191,12.295],[107.206,12.295],[107.23,12.135],[107.24,12.114],[107.229,12.086],[107.237,12.037],[107.252,12.021],[107.322,12.005],[107.426,11.857],[107.393,11.795],[107.353,11.753],[107.301,11.739],[107.285,11.724],[107.285,11.688],[107.267,11.662],[107.273,11.636],[107.304,11.618],[107.297,11.586],[107.312,11.554],[107.357,11.559],[107.453,11.502],[107.467,11.482],[107.446,11.448],[107.475,11.436],[107.485,11.405],[107.513,11.385],[107.541,11.341],[107.519,11.314],[107.516,11.251],[107.474,11.202],[107.456,11.15],[107.435,11.137],[107.454,11.111],[107.423,11.074],[107.415,11.05],[107.474,11.007],[107.496,11.014],[107.543,10.978],[107.56,10.937],[107.56,10.867],[107.577,10.833],[107.555,10.793],[107.505,10.771],[107.483,10.771],[107.471,10.793],[107.444,10.804],[107.361,10.728],[107.346,10.676],[107.316,10.669],[107.3,10.755],[107.207,10.758],[107.189,10.772],[107.139,10.741],[107.134,10.685],[107.097,10.652],[107.044,10.657],[106.999,10.635],[106.984,10.579],[106.941,10.597],[106.873,10.648],[106.824,10.629],[106.807,10.657],[106.757,10.694],[106.754,10.725],[106.776,10.749],[106.824,10.76],[106.867,10.791],[106.88,10.817],[106.857,10.843],[106.838,10.903],[106.816,10.904],[106.769,10.952],[106.796,10.974],[106.775,11.005],[106.808,11.026],[106.802,11.06],[106.829,11.064],[106.84,11.04],[106.873,11.02],[106.907,11.022],[106.947,11.09],[106.965,11.108],[106.954,11.163],[106.933,11.189],[106.906,11.194],[106.918,11.221],[106.911,11.241],[106.951,11.322],[106.93,11.355],[106.885,11.34],[106.859,11.315],[106.855,11.377],[106.785,11.38],[106.774,11.399],[106.779,11.427],[106.805,11.45],[106.791,11.492],[106.754,11.477],[106.753,11.447],[106.679,11.385],[106.671,11.354],[106.616,11.363],[106.613,11.387],[106.553,11.373],[106.546,11.434],[106.573,11.457],[106.54,11.468],[106.489,11.5],[106.424,11.495]]]},"properties":{"name":"Đồng Nai","level":"province"}},{"type":"Feature","geometry":{"type":"Polygon","coordinates":[[[105.682,10.134],[105.625,10.186],[105.605,10.233],[105.542,10.293],[105.495,10.325],[105.5,10.354],[105.529,10.378],[105.524,10.399],[105.555,10.434],[105.574,10.469],[105.55,10.521],[105.513,10.547],[105.482,10.536],[105.446,10.553],[105.419,10.55],[105.369,10.576],[105.347,10.624],[105.338,10.669],[105.351,10.713],[105.334,10.723],[105.28,10.722],[105.3,10.762],[105.269,10.766],[105.262,10.795],[105.237,10.805],[105.209,10.849],[105.19,10.855],[105.189,10.912],[105.24,10.892],[105.265,10.896],[105.338,10.86],[105.406,10.934],[105.423,10.965],[105.499,10.953],[105.516,10.922],[105.583,10.892],[105.613,10.832],[105.596,10.831],[105.781,10.659],[105.835,10.638],[105.91,10.539],[106.102,10.523],[106.101,10.576],[106.205,10.579],[106.286,10.587],[106.318,10.571],[106.369,10.518],[106.371,10.488],[106.404,10.492],[106.451,10.453],[106.427,10.434],[106.426,10.414],[106.481,10.404],[106.529,10.433],[106.589,10.418],[106.585,10.436],[106.625,10.451],[106.639,10.479],[106.68,10.439],[106.705,10.471],[106.744,10.5],[106.757,10.463],[106.823,10.377],[106.783,10.376],[106.781,10.29],[106.756,10.266],[106.78,10.249],[106.78,10.221],[106.754,10.191],[106.709,10.212],[106.691,10.231],[106.59,10.251],[106.542,10.266],[106.477,10.307],[106.448,10.306],[106.402,10.334],[106.368,10.34],[106.312,10.321],[106.288,10.331],[106.203,10.313],[106.143,10.284],[106.077,10.278],[106.035,10.299],[105.995,10.329],[105.975,10.329],[105.927,10.284],[105.877,10.264],[105.92,10.211],[105.913,10.192],[105.876,10.189],[105.87,10.154],[105.818,10.15],[105.801,10.155],[105.775,10.189],[105.728,10.205],[105.682,10.134]]]},"properties":{"name":"Đồng Tháp","level":"province"}},{"type":"Feature","geometry":{"type":"Polygon","coordinates":[[[107.607,13.304],[107.63,13.36],[107.618,13.529],[107.572,13.624],[107.57,13.664],[107.551,13.69],[107.533,13.742],[107.512,13.76],[107.451,13.794],[107.456,13.829],[107.474,13.855],[107.459,13.922],[107.469,13.953],[107.527,13.985],[107.521,14.006],[107.547,14.023],[107.6,14.028],[107.613,14.054],[107.636,14.055],[107.657,14.084],[107.671,14.176],[107.689,14.221],[107.763,14.203],[107.783,14.225],[107.818,14.214],[107.838,14.238],[107.84,14.271],[107.897,14.278],[107.933,14.241],[108.014,14.241],[108.073,14.305],[108.115,14.363],[108.152,14.349],[108.17,14.368],[108.203,14.375],[108.243,14.397],[108.267,14.386],[108.297,14.393],[108.298,14.418],[108.384,14.522],[108.358,14.58],[108.394,14.602],[108.438,14.555],[108.489,14.544],[108.529,14.556],[108.548,14.589],[108.593,14.564],[108.608,14.533],[108.64,14.563],[108.709,14.603],[108.733,14.588],[108.764,14.599],[108.762,14.667],[108.808,14.668],[108.835,14.69],[108.89,14.682],[108.926,14.698],[108.979,14.669],[109.017,14.665],[109.046,14.628],[109.044,14.608],[109.082,14.578],[109.067,14.564],[109.077,14.535],[109.122,14.446],[109.115,14.423],[109.122,14.373],[109.184,14.279],[109.198,14.235],[109.182,14.221],[109.199,14.171],[109.226,14.131],[109.205,14.113],[109.223,14.066],[109.254,14.016],[109.256,13.965],[109.243,13.945],[109.256,13.916],[109.292,13.873],[109.298,13.824],[109.286,13.802],[109.294,13.78],[109.278,13.762],[109.229,13.766],[109.215,13.745],[109.234,13.67],[109.191,13.693],[109.156,13.678],[109.152,13.634],[109.115,13.614],[109.093,13.572],[109.053,13.569],[109.028,13.531],[108.994,13.517],[108.962,13.518],[108.923,13.54],[108.87,13.546],[108.815,13.576],[108.749,13.567],[108.703,13.485],[108.735,13.457],[108.796,13.471],[108.806,13.434],[108.808,13.357],[108.84,13.323],[108.853,13.293],[108.873,13.279],[108.864,13.225],[108.837,13.162],[108.813,13.159],[108.759,13.129],[108.749,13.092],[108.757,13.033],[108.682,12.999],[108.645,13.01],[108.613,13.008],[108.592,13.029],[108.568,13.02],[108.513,13.034],[108.519,13.071],[108.467,13.136],[108.464,13.162],[108.437,13.179],[108.405,13.26],[108.377,13.267],[108.372,13.303],[108.353,13.33],[108.288,13.351],[108.264,13.372],[108.213,13.368],[108.162,13.4],[108.109,13.412],[108.073,13.4],[108.053,13.412],[108.008,13.381],[107.989,13.392],[107.944,13.374],[107.907,13.389],[107.852,13.389],[107.839,13.401],[107.798,13.389],[107.764,13.365],[107.704,13.375],[107.649,13.341],[107.607,13.304]]]},"properties":{"name":"Gia Lai","level":"province"}},{"type":"Feature","geometry":{"type":"Polygon","coordinates":[[[105.785,21.36],[105.8,21.385],[105.853,21.362],[105.859,21.338],[105.893,21.327],[105.923,21.288],[105.938,21.247],[105.909,21.231],[105.907,21.192],[105.926,21.14],[105.913,21.127],[105.946,21.085],[105.977,21.07],[106,21.074],[106.02,21.048],[106.001,21],[105.962,20.988],[105.964,20.963],[105.916,20.975],[105.904,20.947],[105.913,20.915],[105.897,20.892],[105.936,20.867],[105.915,20.84],[105.925,20.789],[105.964,20.778],[105.976,20.699],[106.003,20.704],[105.978,20.666],[105.945,20.655],[105.92,20.676],[105.884,20.645],[105.832,20.645],[105.813,20.634],[105.795,20.568],[105.769,20.564],[105.743,20.599],[105.71,20.599],[105.678,20.628],[105.669,20.676],[105.682,20.699],[105.662,20.723],[105.648,20.794],[105.63,20.816],[105.559,20.881],[105.581,20.929],[105.525,20.919],[105.48,20.948],[105.444,20.956],[105.418,20.998],[105.375,21.014],[105.315,21.011],[105.294,21.055],[105.32,21.11],[105.291,21.153],[105.299,21.187],[105.346,21.225],[105.357,21.278],[105.394,21.303],[105.444,21.27],[105.466,21.208],[105.468,21.183],[105.495,21.16],[105.528,21.154],[105.571,21.161],[105.617,21.179],[105.628,21.211],[105.681,21.234],[105.724,21.225],[105.723,21.266],[105.757,21.3],[105.785,21.36]]]},"properties":{"name":"Hà Nội","level":"province"}},{"type":"Feature","geometry":{"type":"Polygon","coordinates":[[[105.188,18.602],[105.228,18.592],[105.263,18.618],[105.296,18.622],[105.36,18.582],[105.398,18.58],[105.443,18.6],[105.502,18.611],[105.531,18.561],[105.583,18.559],[105.616,18.577],[105.635,18.564],[105.69,18.596],[105.689,18.621],[105.716,18.668],[105.764,18.671],[105.766,18.691],[105.742,18.743],[105.763,18.763],[105.777,18.759],[105.797,18.677],[105.818,18.616],[105.853,18.551],[105.915,18.466],[105.939,18.467],[105.96,18.429],[106.043,18.328],[106.096,18.279],[106.122,18.266],[106.158,18.268],[106.235,18.217],[106.251,18.216],[106.287,18.176],[106.355,18.114],[106.391,18.099],[106.421,18.102],[106.458,18.015],[106.495,17.965],[106.511,17.96],[106.444,17.952],[106.423,17.97],[106.359,17.991],[106.339,17.991],[106.306,17.962],[106.264,17.914],[106.241,17.93],[106.173,17.915],[106.078,17.933],[106.046,17.947],[106.048,17.965],[106.076,17.991],[106.05,18.022],[106.023,18.024],[105.986,18.064],[105.953,18.057],[105.932,18.089],[105.896,18.09],[105.868,18.066],[105.839,18.066],[105.834,18.045],[105.809,18.025],[105.775,18.017],[105.73,18.033],[105.706,17.993],[105.635,17.991],[105.613,18.012],[105.581,18.014],[105.586,18.042],[105.571,18.084],[105.54,18.082],[105.534,18.116],[105.513,18.149],[105.501,18.188],[105.459,18.205],[105.41,18.154],[105.364,18.164],[105.32,18.201],[105.329,18.264],[105.288,18.255],[105.258,18.267],[105.243,18.296],[105.218,18.303],[105.184,18.33],[105.189,18.353],[105.171,18.392],[105.121,18.419],[105.104,18.447],[105.116,18.539],[105.14,18.562],[105.139,18.597],[105.159,18.613],[105.188,18.602]]]},"properties":{"name":"Hà Tĩnh","level":"province"}},{"type":"Feature","geometry":{"type":"MultiPolygon","coordinates":[[[[106.127,20.984],[106.138,21.001],[106.175,20.975],[106.273,21.004],[106.293,21.019],[106.311,21.059],[106.296,21.105],[106.323,21.153],[106.31,21.179],[106.36,21.172],[106.374,21.195],[106.413,21.208],[106.426,21.232],[106.502,21.224],[106.497,21.185],[106.483,21.161],[106.484,21.129],[106.462,21.115],[106.441,21.08],[106.458,21.065],[106.487,21.068],[106.533,21.047],[106.577,21.056],[106.634,21.011],[106.653,21.019],[106.686,21.005],[106.757,20.992],[106.769,20.971],[106.771,20.914],[106.753,20.879],[106.766,20.85],[106.833,20.812],[106.874,20.834],[106.902,20.805],[106.86,20.79],[106.77,20.796],[106.789,20.725],[106.717,20.686],[106.69,20.633],[106.657,20.612],[106.601,20.64],[106.54,20.608],[106.492,20.616],[106.482,20.6],[106.45,20.622],[106.455,20.639],[106.402,20.694],[106.402,20.729],[106.362,20.703],[106.332,20.71],[106.303,20.69],[106.243,20.696],[106.228,20.705],[106.215,20.75],[106.148,20.785],[106.131,20.829],[106.147,20.889],[106.137,20.905],[106.159,20.951],[106.135,20.96],[106.127,20.984]]],[[[106.954,20.874],[106.981,20.853],[107.037,20.861],[107.063,20.818],[107.09,20.817],[107.106,20.793],[107.053,20.774],[107.072,20.745],[107.051,20.722],[107.017,20.747],[106.991,20.745],[106.952,20.793],[106.946,20.827],[106.954,20.874]]]]},"properties":{"name":"Hải Phòng","level":"province"}},{"type":"Feature","geometry":{"type":"Polygon","coordinates":[[[107.026,16.313],[107.016,16.361],[107.05,16.382],[107.065,16.41],[107.059,16.448],[107.125,16.442],[107.136,16.456],[107.12,16.487],[107.067,16.511],[107.062,16.537],[107.154,16.575],[107.245,16.587],[107.271,16.566],[107.317,16.595],[107.311,16.625],[107.319,16.662],[107.358,16.699],[107.37,16.734],[107.389,16.743],[107.513,16.646],[107.591,16.591],[107.664,16.555],[107.775,16.475],[107.891,16.374],[107.98,16.317],[108.025,16.326],[108.087,16.234],[108.117,16.213],[108.148,16.221],[108.194,16.21],[108.194,16.209],[108.172,16.202],[108.156,16.206],[108.114,16.183],[108.109,16.184],[108.105,16.186],[108.086,16.183],[108.055,16.181],[108.045,16.187],[108.04,16.189],[108.038,16.191],[108.012,16.197],[108.006,16.205],[107.992,16.211],[107.988,16.214],[107.95,16.191],[107.948,16.192],[107.932,16.197],[107.931,16.197],[107.928,16.2],[107.911,16.216],[107.875,16.196],[107.874,16.158],[107.859,16.153],[107.856,16.113],[107.822,16.079],[107.819,16.058],[107.787,16.068],[107.727,16.03],[107.708,15.996],[107.68,15.998],[107.664,16.018],[107.633,16.03],[107.62,16.063],[107.571,16.055],[107.545,16.011],[107.512,16.016],[107.495,16.039],[107.467,16.025],[107.447,16.039],[107.461,16.073],[107.412,16.084],[107.399,16.063],[107.338,16.056],[107.305,16.086],[107.284,16.119],[107.246,16.148],[107.195,16.145],[107.158,16.171],[107.147,16.222],[107.157,16.255],[107.146,16.271],[107.088,16.312],[107.043,16.301],[107.026,16.313]]]},"properties":{"name":"Huế","level":"province"}},{"type":"Feature","geometry":{"type":"Polygon","coordinates":[[[106.003,20.704],[105.976,20.699],[105.964,20.778],[105.925,20.789],[105.915,20.84],[105.936,20.867],[105.897,20.892],[105.913,20.915],[105.904,20.947],[105.916,20.975],[105.964,20.963],[105.962,20.988],[106.001,21],[106.029,20.993],[106.051,21.007],[106.09,21.007],[106.127,20.984],[106.135,20.96],[106.159,20.951],[106.137,20.905],[106.147,20.889],[106.131,20.829],[106.148,20.785],[106.215,20.75],[106.228,20.705],[106.243,20.696],[106.303,20.69],[106.332,20.71],[106.362,20.703],[106.402,20.729],[106.402,20.694],[106.455,20.639],[106.45,20.622],[106.482,20.6],[106.492,20.616],[106.54,20.608],[106.601,20.64],[106.657,20.612],[106.608,20.577],[106.585,20.55],[106.581,20.516],[106.597,20.5],[106.601,20.446],[106.577,20.368],[106.594,20.323],[106.615,20.303],[106.605,20.256],[106.593,20.24],[106.58,20.264],[106.527,20.316],[106.461,20.289],[106.437,20.296],[106.407,20.332],[106.356,20.354],[106.336,20.377],[106.272,20.327],[106.254,20.356],[106.283,20.379],[106.275,20.405],[106.223,20.41],[106.21,20.429],[106.226,20.468],[106.178,20.495],[106.173,20.547],[106.137,20.571],[106.129,20.595],[106.103,20.618],[106.077,20.603],[106.054,20.612],[106.032,20.648],[106.037,20.676],[106.003,20.704]]]},"properties":{"name":"Hưng Yên","level":"province"}},{"type":"Feature","geometry":{"type":"MultiPolygon","coordinates":[[[[108.864,11.333],[108.844,11.376],[108.804,11.382],[108.757,11.411],[108.762,11.47],[108.713,11.461],[108.679,11.472],[108.659,11.504],[108.642,11.55],[108.583,11.555],[108.552,11.601],[108.553,11.632],[108.597,11.649],[108.679,11.669],[108.693,11.698],[108.69,11.735],[108.668,11.747],[108.672,11.785],[108.619,11.804],[108.63,11.83],[108.653,11.844],[108.654,11.895],[108.664,11.915],[108.662,11.962],[108.681,11.985],[108.68,12.011],[108.712,12.061],[108.699,12.098],[108.678,12.122],[108.694,12.146],[108.729,12.162],[108.71,12.191],[108.722,12.218],[108.702,12.238],[108.702,12.307],[108.68,12.317],[108.677,12.348],[108.686,12.387],[108.673,12.432],[108.715,12.484],[108.738,12.476],[108.751,12.498],[108.779,12.506],[108.799,12.482],[108.863,12.453],[108.877,12.481],[108.858,12.492],[108.897,12.564],[108.863,12.595],[108.875,12.625],[108.912,12.641],[108.902,12.672],[108.943,12.694],[108.963,12.684],[109.065,12.752],[109.081,12.742],[109.116,12.797],[109.141,12.783],[109.163,12.824],[109.208,12.83],[109.226,12.813],[109.259,12.838],[109.281,12.832],[109.326,12.841],[109.371,12.862],[109.388,12.843],[109.357,12.822],[109.362,12.787],[109.392,12.719],[109.437,12.647],[109.43,12.596],[109.415,12.578],[109.391,12.63],[109.41,12.637],[109.407,12.668],[109.349,12.686],[109.377,12.706],[109.353,12.763],[109.355,12.791],[109.332,12.794],[109.315,12.765],[109.255,12.702],[109.233,12.698],[109.19,12.629],[109.212,12.57],[109.23,12.551],[109.239,12.508],[109.297,12.473],[109.288,12.43],[109.319,12.418],[109.337,12.388],[109.303,12.381],[109.293,12.346],[109.261,12.362],[109.242,12.405],[109.178,12.456],[109.157,12.424],[109.163,12.406],[109.199,12.397],[109.202,12.335],[109.235,12.308],[109.207,12.291],[109.197,12.253],[109.217,12.211],[109.201,12.164],[109.222,12.152],[109.195,12.09],[109.218,12.031],[109.25,11.978],[109.272,11.971],[109.277,11.945],[109.258,11.924],[109.281,11.877],[109.248,11.864],[109.232,11.881],[109.19,11.87],[109.178,11.844],[109.187,11.792],[109.23,11.748],[109.228,11.721],[109.199,11.716],[109.177,11.677],[109.166,11.621],[109.147,11.61],[109.123,11.573],[109.09,11.588],[109.035,11.588],[109.032,11.546],[109.012,11.514],[109.008,11.383],[109.015,11.356],[108.964,11.316],[108.929,11.308],[108.879,11.338],[108.864,11.333]]],[[[109.273,12.231],[109.297,12.23],[109.336,12.195],[109.316,12.186],[109.258,12.2],[109.273,12.231]]],[[[111.7,7.645],[111.659,7.609],[111.653,7.632],[111.7,7.645]]],[[[110.522,7.851],[110.492,7.809],[110.443,7.806],[110.478,7.85],[110.522,7.851]]],[[[110.619,8.076],[110.639,8.043],[110.618,8.003],[110.592,8.024],[110.59,8.059],[110.619,8.076]]],[[[112.05,8.196],[112.056,8.175],[112.04,8.129],[111.967,8.124],[111.942,8.138],[111.951,8.164],[111.995,8.176],[112.012,8.204],[112.05,8.196]]],[[[110.566,8.21],[110.587,8.178],[110.556,8.176],[110.538,8.198],[110.566,8.21]]],[[[111.473,8.618],[111.492,8.614],[111.509,8.581],[111.498,8.538],[111.44,8.508],[111.411,8.519],[111.421,8.558],[111.458,8.578],[111.473,8.618]]],[[[112.501,9.603],[112.511,9.58],[112.501,9.552],[112.422,9.484],[112.375,9.406],[112.337,9.404],[112.318,9.445],[112.356,9.513],[112.418,9.614],[112.456,9.619],[112.501,9.603]]],[[[109.329,12.636],[109.385,12.624],[109.385,12.605],[109.413,12.556],[109.338,12.592],[109.303,12.619],[109.329,12.636]]],[[[114.158,7.757],[114.126,7.723],[114.088,7.713],[114.071,7.687],[114.046,7.698],[114.126,7.76],[114.158,7.757]]],[[[113.366,8.274],[113.346,8.205],[113.315,8.159],[113.273,8.135],[113.295,8.185],[113.343,8.228],[113.366,8.274]],[[113.341,8.216],[113.298,8.179],[113.31,8.157],[113.344,8.206],[113.341,8.216]]],[[[114.178,8.742],[114.197,8.734],[114.21,8.686],[114.181,8.665],[114.171,8.69],[114.172,8.713],[114.158,8.741],[114.178,8.742]],[[114.172,8.727],[114.182,8.675],[114.202,8.685],[114.195,8.728],[114.172,8.727]]],[[[114.147,9.383],[114.148,9.422],[114.177,9.438],[114.223,9.413],[114.249,9.37],[114.23,9.324],[114.176,9.354],[114.147,9.383]]],[[[113.66,10.222],[113.63,10.213],[113.576,10.213],[113.551,10.228],[113.549,10.277],[113.595,10.324],[113.65,10.323],[113.668,10.279],[113.66,10.222]]],[[[114.454,7.975],[114.432,7.969],[114.429,7.93],[114.383,7.922],[114.32,7.937],[114.346,7.952],[114.378,7.933],[114.41,7.945],[114.421,7.973],[114.454,7.975]]],[[[114.369,8.525],[114.371,8.498],[114.342,8.501],[114.333,8.529],[114.369,8.525]]],[[[114.602,11.284],[114.579,11.259],[114.532,11.269],[114.52,11.297],[114.532,11.333],[114.55,11.345],[114.586,11.339],[114.603,11.314],[114.602,11.284]]],[[[114.727,8.169],[114.767,8.159],[114.787,8.121],[114.738,8.142],[114.712,8.144],[114.665,8.123],[114.638,8.124],[114.609,8.102],[114.562,8.101],[114.535,8.118],[114.672,8.149],[114.7,8.171],[114.727,8.169]]],[[[114.683,8.861],[114.642,8.826],[114.635,8.855],[114.662,8.869],[114.683,8.861]]],[[[115.458,9.398],[115.468,9.361],[115.434,9.355],[115.425,9.38],[115.444,9.415],[115.458,9.398]],[[115.441,9.395],[115.439,9.358],[115.461,9.363],[115.441,9.395]]],[[[116.363,9.559],[116.393,9.591],[116.429,9.56],[116.434,9.539],[116.409,9.493],[116.361,9.479],[116.327,9.485],[116.326,9.503],[116.354,9.517],[116.363,9.559]]],[[[115.805,10.536],[115.793,10.458],[115.767,10.477],[115.777,10.508],[115.76,10.533],[115.805,10.536]]],[[[115.834,10.677],[115.85,10.63],[115.82,10.615],[115.834,10.677]]],[[[116.175,10.715],[116.181,10.68],[116.207,10.64],[116.184,10.61],[116.162,10.623],[116.161,10.657],[116.175,10.715]]],[[[115.85,10.807],[115.872,10.787],[115.888,10.721],[115.858,10.743],[115.872,10.767],[115.844,10.787],[115.825,10.784],[115.816,10.756],[115.819,10.722],[115.837,10.687],[115.818,10.681],[115.805,10.731],[115.818,10.809],[115.85,10.807]]],[[[114.642,11.382],[114.681,11.4],[114.707,11.397],[114.757,11.334],[114.759,11.317],[114.739,11.282],[114.693,11.276],[114.66,11.297],[114.631,11.342],[114.642,11.382]]],[[[116.242,11.35],[116.227,11.378],[116.248,11.463],[116.278,11.51],[116.313,11.53],[116.35,11.527],[116.358,11.512],[116.35,11.452],[116.311,11.363],[116.278,11.341],[116.242,11.35]]],[[[116.357,11.667],[116.342,11.622],[116.309,11.575],[116.265,11.55],[116.217,11.55],[116.184,11.567],[116.147,11.609],[116.129,11.652],[116.12,11.7],[116.129,11.782],[116.147,11.825],[116.184,11.867],[116.217,11.884],[116.265,11.884],[116.309,11.858],[116.342,11.811],[116.357,11.766],[116.363,11.717],[116.357,11.667]]],[[[116.541,9.742],[116.582,9.742],[116.566,9.715],[116.541,9.742]]],[[[116.503,10.335],[116.525,10.301],[116.5,10.285],[116.47,10.306],[116.485,10.335],[116.503,10.335]]],[[[116.633,10.811],[116.66,10.794],[116.64,10.773],[116.619,10.794],[116.633,10.811]]],[[[117.371,10.379],[117.359,10.3],[117.308,10.297],[117.267,10.33],[117.302,10.38],[117.371,10.379]]],[[[116.893,10.556],[116.943,10.529],[116.909,10.512],[116.893,10.556]]],[[[117.142,10.624],[117.199,10.6],[117.192,10.579],[117.152,10.594],[117.142,10.624]]],[[[116.82,10.681],[116.814,10.639],[116.789,10.664],[116.82,10.681]]],[[[117.802,10.914],[117.803,10.883],[117.817,10.841],[117.814,10.804],[117.788,10.792],[117.761,10.799],[117.753,10.854],[117.761,10.921],[117.802,10.914]]],[[[117.409,10.905],[117.421,10.892],[117.404,10.857],[117.377,10.855],[117.372,10.887],[117.409,10.905]]],[[[117.308,11.119],[117.327,11.079],[117.312,11.041],[117.272,11.02],[117.233,11.034],[117.222,11.057],[117.233,11.102],[117.254,11.122],[117.291,11.128],[117.308,11.119]]],[[[117.496,11.071],[117.457,11.052],[117.435,11.08],[117.457,11.114],[117.482,11.112],[117.496,11.071]]]]},"properties":{"name":"Khánh Hòa","level":"province"}},{"type":"Feature","geometry":{"type":"Polygon","coordinates":[[[102.322,22.547],[102.354,22.567],[102.404,22.634],[102.382,22.681],[102.436,22.702],[102.456,22.733],[102.452,22.756],[102.482,22.779],[102.508,22.779],[102.565,22.723],[102.611,22.731],[102.657,22.69],[102.688,22.704],[102.71,22.681],[102.752,22.668],[102.787,22.626],[102.825,22.627],[102.878,22.588],[102.878,22.559],[102.896,22.544],[102.923,22.49],[102.983,22.481],[102.997,22.46],[103.031,22.442],[103.08,22.451],[103.072,22.487],[103.085,22.511],[103.114,22.514],[103.148,22.544],[103.183,22.56],[103.158,22.594],[103.193,22.65],[103.228,22.648],[103.284,22.685],[103.285,22.737],[103.321,22.787],[103.32,22.808],[103.367,22.801],[103.44,22.753],[103.427,22.717],[103.46,22.678],[103.456,22.662],[103.488,22.619],[103.53,22.595],[103.566,22.568],[103.584,22.531],[103.583,22.498],[103.555,22.472],[103.604,22.41],[103.625,22.396],[103.727,22.415],[103.762,22.392],[103.779,22.349],[103.76,22.313],[103.786,22.303],[103.825,22.27],[103.841,22.226],[103.871,22.2],[103.868,22.178],[103.869,22.178],[103.887,22.175],[103.922,22.141],[103.938,22.14],[103.938,22.082],[103.957,22.049],[103.954,22],[103.985,21.967],[103.943,21.918],[103.921,21.932],[103.893,21.921],[103.889,21.865],[103.953,21.797],[103.966,21.761],[103.916,21.735],[103.922,21.701],[103.882,21.709],[103.872,21.686],[103.838,21.706],[103.826,21.735],[103.807,21.737],[103.76,21.808],[103.716,21.813],[103.696,21.838],[103.721,21.871],[103.701,21.91],[103.683,21.921],[103.658,21.982],[103.608,22.012],[103.525,22.025],[103.497,21.97],[103.475,21.979],[103.452,22.009],[103.469,22.027],[103.453,22.054],[103.42,22.075],[103.405,22.129],[103.389,22.157],[103.337,22.154],[103.285,22.103],[103.273,22.072],[103.277,22.039],[103.211,22.07],[103.133,22.074],[103.103,22.102],[103.09,22.07],[103.039,22.048],[103.022,22.056],[102.97,22.03],[102.935,22.084],[102.868,22.078],[102.828,22.064],[102.778,22.089],[102.768,22.117],[102.744,22.131],[102.737,22.164],[102.752,22.204],[102.729,22.238],[102.695,22.245],[102.698,22.209],[102.677,22.169],[102.64,22.177],[102.617,22.203],[102.619,22.236],[102.579,22.261],[102.554,22.244],[102.515,22.261],[102.449,22.361],[102.427,22.371],[102.398,22.419],[102.387,22.467],[102.361,22.477],[102.322,22.547]]]},"properties":{"name":"Lai Châu","level":"province"}},{"type":"Feature","geometry":{"type":"Polygon","coordinates":[[[107.571,10.568],[107.568,10.619],[107.539,10.676],[107.544,10.706],[107.505,10.748],[107.505,10.771],[107.555,10.793],[107.577,10.833],[107.56,10.867],[107.56,10.937],[107.543,10.978],[107.496,11.014],[107.474,11.007],[107.415,11.05],[107.423,11.074],[107.454,11.111],[107.435,11.137],[107.456,11.15],[107.474,11.202],[107.516,11.251],[107.519,11.314],[107.541,11.341],[107.513,11.385],[107.485,11.405],[107.475,11.436],[107.446,11.448],[107.467,11.482],[107.453,11.502],[107.357,11.559],[107.312,11.554],[107.297,11.586],[107.304,11.618],[107.273,11.636],[107.267,11.662],[107.285,11.688],[107.285,11.724],[107.301,11.739],[107.353,11.753],[107.393,11.795],[107.426,11.857],[107.322,12.005],[107.252,12.021],[107.237,12.037],[107.229,12.086],[107.24,12.114],[107.23,12.135],[107.206,12.295],[107.229,12.296],[107.292,12.328],[107.313,12.322],[107.347,12.334],[107.415,12.251],[107.442,12.266],[107.444,12.292],[107.543,12.35],[107.543,12.415],[107.559,12.439],[107.579,12.496],[107.563,12.516],[107.589,12.56],[107.579,12.581],[107.584,12.614],[107.569,12.643],[107.582,12.68],[107.559,12.715],[107.56,12.795],[107.635,12.804],[107.689,12.79],[107.77,12.778],[107.803,12.78],[107.849,12.812],[107.86,12.757],[107.909,12.743],[107.895,12.711],[107.921,12.645],[107.931,12.582],[107.893,12.564],[107.905,12.528],[107.94,12.527],[107.974,12.509],[108.001,12.475],[107.984,12.446],[107.953,12.442],[107.924,12.421],[107.913,12.398],[107.934,12.367],[107.934,12.343],[107.974,12.297],[108.04,12.289],[108.068,12.265],[108.086,12.225],[108.12,12.175],[108.153,12.188],[108.209,12.173],[108.238,12.176],[108.278,12.214],[108.3,12.209],[108.332,12.231],[108.336,12.248],[108.37,12.254],[108.387,12.241],[108.427,12.252],[108.493,12.305],[108.509,12.278],[108.541,12.297],[108.596,12.277],[108.663,12.298],[108.68,12.317],[108.702,12.307],[108.702,12.238],[108.722,12.218],[108.71,12.191],[108.729,12.162],[108.694,12.146],[108.678,12.122],[108.699,12.098],[108.712,12.061],[108.68,12.011],[108.681,11.985],[108.662,11.962],[108.664,11.915],[108.654,11.895],[108.653,11.844],[108.63,11.83],[108.619,11.804],[108.672,11.785],[108.668,11.747],[108.69,11.735],[108.693,11.698],[108.679,11.669],[108.597,11.649],[108.553,11.632],[108.552,11.601],[108.583,11.555],[108.642,11.55],[108.659,11.504],[108.679,11.472],[108.713,11.461],[108.762,11.47],[108.757,11.411],[108.804,11.382],[108.844,11.376],[108.864,11.333],[108.783,11.309],[108.755,11.28],[108.73,11.184],[108.712,11.175],[108.662,11.193],[108.616,11.181],[108.58,11.18],[108.562,11.163],[108.518,11.147],[108.497,11.114],[108.474,11.049],[108.409,11.033],[108.377,11.034],[108.348,10.999],[108.34,10.958],[108.313,10.959],[108.294,10.914],[108.271,10.945],[108.234,10.954],[108.166,10.931],[108.121,10.928],[108.081,10.91],[108.043,10.844],[108.026,10.795],[108.015,10.737],[107.996,10.709],[107.961,10.705],[107.897,10.722],[107.831,10.705],[107.775,10.651],[107.728,10.631],[107.683,10.624],[107.664,10.609],[107.571,10.568]]]},"properties":{"name":"Lâm Đồng","level":"province"}},{"type":"Feature","geometry":{"type":"Polygon","coordinates":[[[106.185,21.604],[106.191,21.645],[106.227,21.682],[106.238,21.715],[106.15,21.761],[106.135,21.785],[106.114,21.781],[106.095,21.821],[106.132,21.917],[106.103,21.94],[106.115,21.978],[106.099,22.068],[106.123,22.085],[106.157,22.082],[106.189,22.14],[106.232,22.174],[106.221,22.207],[106.237,22.221],[106.247,22.258],[106.212,22.29],[106.2,22.314],[106.22,22.35],[106.185,22.387],[106.201,22.432],[106.24,22.461],[106.276,22.448],[106.296,22.426],[106.344,22.392],[106.361,22.357],[106.396,22.374],[106.453,22.357],[106.487,22.368],[106.498,22.405],[106.52,22.398],[106.535,22.419],[106.561,22.422],[106.586,22.378],[106.56,22.349],[106.582,22.34],[106.649,22.34],[106.688,22.272],[106.702,22.22],[106.671,22.184],[106.696,22.154],[106.692,22.119],[106.713,22.096],[106.697,22.054],[106.708,22.025],[106.682,22.001],[106.695,21.973],[106.716,21.972],[106.737,22.003],[106.771,22.011],[106.812,21.973],[106.841,21.984],[106.904,21.971],[106.934,21.929],[106.961,21.919],[106.989,21.943],[107.015,21.946],[107.048,21.93],[107.063,21.896],[107.018,21.864],[107.005,21.833],[107.03,21.817],[107.086,21.808],[107.141,21.762],[107.185,21.747],[107.2,21.72],[107.249,21.705],[107.264,21.728],[107.301,21.742],[107.357,21.666],[107.362,21.6],[107.338,21.588],[107.294,21.592],[107.284,21.569],[107.217,21.552],[107.205,21.541],[107.246,21.482],[107.242,21.435],[107.265,21.4],[107.252,21.366],[107.217,21.388],[107.17,21.363],[107.097,21.374],[107.079,21.346],[107.032,21.325],[106.988,21.359],[106.986,21.402],[107.004,21.422],[106.987,21.44],[106.911,21.431],[106.891,21.451],[106.89,21.49],[106.845,21.494],[106.86,21.523],[106.843,21.56],[106.806,21.559],[106.784,21.576],[106.734,21.545],[106.699,21.574],[106.702,21.594],[106.67,21.609],[106.571,21.603],[106.527,21.558],[106.507,21.521],[106.521,21.5],[106.495,21.483],[106.483,21.449],[106.439,21.443],[106.406,21.429],[106.416,21.408],[106.372,21.395],[106.324,21.41],[106.333,21.438],[106.283,21.456],[106.285,21.49],[106.242,21.486],[106.169,21.512],[106.169,21.596],[106.185,21.604]]]},"properties":{"name":"Lạng Sơn","level":"province"}},{"type":"Feature","geometry":{"type":"Polygon","coordinates":[[[103.922,21.701],[103.916,21.735],[103.966,21.761],[103.953,21.797],[103.889,21.865],[103.893,21.921],[103.921,21.932],[103.943,21.918],[103.985,21.967],[103.954,22],[103.957,22.049],[103.938,22.082],[103.938,22.14],[103.922,22.141],[103.887,22.175],[103.869,22.178],[103.868,22.178],[103.871,22.2],[103.841,22.226],[103.825,22.27],[103.786,22.303],[103.76,22.313],[103.779,22.349],[103.762,22.392],[103.727,22.415],[103.625,22.396],[103.604,22.41],[103.555,22.472],[103.583,22.498],[103.584,22.531],[103.566,22.568],[103.53,22.595],[103.579,22.67],[103.564,22.706],[103.639,22.798],[103.769,22.69],[103.812,22.641],[103.824,22.617],[103.889,22.57],[103.961,22.506],[104.013,22.524],[104.016,22.595],[104.03,22.626],[104.029,22.687],[104.039,22.724],[104.09,22.772],[104.115,22.812],[104.141,22.806],[104.167,22.822],[104.22,22.829],[104.244,22.844],[104.271,22.829],[104.258,22.766],[104.28,22.741],[104.321,22.732],[104.342,22.711],[104.335,22.69],[104.366,22.673],[104.398,22.681],[104.412,22.639],[104.462,22.613],[104.466,22.575],[104.425,22.574],[104.418,22.525],[104.474,22.484],[104.451,22.463],[104.466,22.425],[104.491,22.42],[104.55,22.38],[104.547,22.362],[104.58,22.306],[104.543,22.277],[104.553,22.242],[104.574,22.245],[104.607,22.291],[104.677,22.265],[104.722,22.257],[104.725,22.198],[104.757,22.173],[104.813,22.173],[104.846,22.185],[104.862,22.147],[104.865,22.097],[104.887,22.071],[104.942,22.052],[104.947,22.036],[104.997,22.044],[104.99,22.003],[105,21.989],[104.987,21.943],[105.019,21.936],[105.018,21.894],[105.037,21.891],[105.089,21.807],[105.081,21.771],[105.061,21.744],[105.086,21.718],[105.1,21.683],[105.02,21.688],[104.91,21.635],[104.891,21.602],[104.898,21.564],[104.869,21.542],[104.896,21.47],[104.912,21.448],[104.908,21.414],[104.882,21.383],[104.901,21.351],[104.883,21.342],[104.814,21.333],[104.779,21.326],[104.749,21.352],[104.735,21.403],[104.69,21.401],[104.686,21.377],[104.647,21.383],[104.589,21.423],[104.579,21.409],[104.529,21.413],[104.504,21.376],[104.474,21.352],[104.421,21.36],[104.412,21.387],[104.354,21.415],[104.332,21.408],[104.299,21.439],[104.282,21.472],[104.293,21.525],[104.277,21.551],[104.298,21.571],[104.291,21.603],[104.319,21.62],[104.339,21.653],[104.212,21.671],[104.196,21.648],[104.16,21.656],[104.088,21.643],[104.027,21.672],[103.982,21.678],[103.937,21.67],[103.922,21.701]]]},"properties":{"name":"Lào Cai","level":"province"}},{"type":"Feature","geometry":{"type":"Polygon","coordinates":[[[104.92,19.996],[104.958,19.993],[104.976,19.976],[105.057,19.93],[105.106,19.936],[105.169,19.914],[105.188,19.868],[105.152,19.856],[105.128,19.801],[105.134,19.743],[105.161,19.716],[105.164,19.685],[105.211,19.662],[105.246,19.657],[105.282,19.604],[105.281,19.563],[105.267,19.53],[105.277,19.494],[105.309,19.489],[105.345,19.542],[105.389,19.456],[105.429,19.455],[105.445,19.441],[105.469,19.456],[105.525,19.464],[105.583,19.39],[105.591,19.37],[105.628,19.38],[105.642,19.353],[105.668,19.34],[105.684,19.305],[105.715,19.303],[105.737,19.318],[105.768,19.292],[105.805,19.287],[105.779,19.267],[105.771,19.234],[105.74,19.221],[105.733,19.197],[105.731,19.116],[105.693,19.083],[105.674,19.097],[105.653,19.084],[105.627,19.041],[105.618,18.977],[105.637,18.897],[105.691,18.874],[105.713,18.847],[105.733,18.796],[105.763,18.763],[105.742,18.743],[105.766,18.691],[105.764,18.671],[105.716,18.668],[105.689,18.621],[105.69,18.596],[105.635,18.564],[105.616,18.577],[105.583,18.559],[105.531,18.561],[105.502,18.611],[105.443,18.6],[105.398,18.58],[105.36,18.582],[105.296,18.622],[105.263,18.618],[105.228,18.592],[105.188,18.602],[105.193,18.633],[105.141,18.679],[105.134,18.715],[105.106,18.704],[105.06,18.724],[104.971,18.742],[104.943,18.738],[104.938,18.773],[104.924,18.786],[104.795,18.784],[104.784,18.802],[104.74,18.801],[104.699,18.84],[104.676,18.838],[104.629,18.887],[104.587,18.904],[104.546,18.954],[104.529,18.986],[104.497,19.004],[104.454,18.985],[104.402,19.037],[104.4,19.057],[104.307,19.092],[104.3,19.113],[104.25,19.11],[104.215,19.12],[104.224,19.157],[104.199,19.164],[104.181,19.198],[104.13,19.204],[104.113,19.223],[104.07,19.247],[104.003,19.229],[103.969,19.247],[103.925,19.284],[103.918,19.301],[103.876,19.318],[103.953,19.358],[103.976,19.399],[104.014,19.402],[104.052,19.425],[104.072,19.419],[104.085,19.48],[104.123,19.504],[104.107,19.517],[104.105,19.565],[104.062,19.611],[104.057,19.651],[104.077,19.68],[104.112,19.66],[104.153,19.666],[104.156,19.685],[104.236,19.708],[104.272,19.696],[104.343,19.687],[104.416,19.707],[104.422,19.68],[104.452,19.653],[104.495,19.65],[104.526,19.613],[104.569,19.613],[104.612,19.634],[104.649,19.626],[104.671,19.687],[104.663,19.7],[104.723,19.755],[104.754,19.751],[104.784,19.784],[104.836,19.795],[104.834,19.853],[104.842,19.925],[104.886,19.952],[104.92,19.996]]]},"properties":{"name":"Nghệ An","level":"province"}},{"type":"Feature","geometry":{"type":"Polygon","coordinates":[[[105.543,20.362],[105.581,20.37],[105.635,20.344],[105.686,20.305],[105.73,20.339],[105.695,20.388],[105.705,20.412],[105.76,20.378],[105.752,20.439],[105.794,20.447],[105.825,20.418],[105.854,20.434],[105.852,20.478],[105.806,20.499],[105.769,20.564],[105.795,20.568],[105.813,20.634],[105.832,20.645],[105.884,20.645],[105.92,20.676],[105.945,20.655],[105.978,20.666],[106.003,20.704],[106.037,20.676],[106.032,20.648],[106.054,20.612],[106.077,20.603],[106.103,20.618],[106.129,20.595],[106.137,20.571],[106.173,20.547],[106.178,20.495],[106.226,20.468],[106.21,20.429],[106.223,20.41],[106.275,20.405],[106.283,20.379],[106.254,20.356],[106.272,20.327],[106.336,20.377],[106.356,20.354],[106.407,20.332],[106.437,20.296],[106.461,20.289],[106.527,20.316],[106.58,20.264],[106.593,20.24],[106.562,20.203],[106.537,20.225],[106.438,20.213],[106.358,20.179],[106.3,20.112],[106.181,19.986],[106.106,19.958],[106.067,19.937],[106.024,19.976],[106.054,20.007],[106.072,20.067],[106.023,20.059],[105.959,20.067],[105.925,20.101],[105.869,20.125],[105.793,20.17],[105.741,20.185],[105.701,20.218],[105.65,20.274],[105.621,20.282],[105.604,20.308],[105.579,20.312],[105.549,20.335],[105.543,20.362]]]},"properties":{"name":"Ninh Bình","level":"province"}},{"type":"Feature","geometry":{"type":"Polygon","coordinates":[[[104.847,20.652],[104.838,20.748],[104.883,20.767],[104.925,20.743],[104.986,20.722],[104.991,20.754],[105.025,20.802],[104.998,20.818],[105.007,20.843],[104.977,20.906],[104.941,20.931],[104.903,20.978],[104.89,21.01],[104.869,21.03],[104.854,21.068],[104.897,21.13],[104.853,21.153],[104.864,21.205],[104.84,21.265],[104.843,21.311],[104.814,21.333],[104.883,21.342],[104.901,21.351],[104.882,21.383],[104.908,21.414],[104.912,21.448],[104.896,21.47],[104.869,21.542],[104.898,21.564],[104.891,21.602],[104.91,21.635],[105.02,21.688],[105.1,21.683],[105.086,21.718],[105.157,21.686],[105.178,21.687],[105.209,21.661],[105.256,21.575],[105.273,21.562],[105.306,21.509],[105.381,21.523],[105.428,21.504],[105.485,21.518],[105.523,21.538],[105.543,21.574],[105.556,21.571],[105.653,21.457],[105.704,21.441],[105.73,21.409],[105.756,21.41],[105.785,21.36],[105.757,21.3],[105.723,21.266],[105.724,21.225],[105.681,21.234],[105.628,21.211],[105.617,21.179],[105.571,21.161],[105.528,21.154],[105.495,21.16],[105.468,21.183],[105.466,21.208],[105.444,21.27],[105.394,21.303],[105.357,21.278],[105.346,21.225],[105.299,21.187],[105.291,21.153],[105.32,21.11],[105.294,21.055],[105.315,21.011],[105.375,21.014],[105.418,20.998],[105.444,20.956],[105.48,20.948],[105.525,20.919],[105.581,20.929],[105.559,20.881],[105.63,20.816],[105.648,20.794],[105.662,20.723],[105.682,20.699],[105.669,20.676],[105.678,20.628],[105.71,20.599],[105.743,20.599],[105.769,20.564],[105.806,20.499],[105.852,20.478],[105.854,20.434],[105.825,20.418],[105.794,20.447],[105.752,20.439],[105.76,20.378],[105.705,20.412],[105.695,20.388],[105.73,20.339],[105.686,20.305],[105.635,20.344],[105.581,20.37],[105.543,20.362],[105.5,20.361],[105.437,20.384],[105.406,20.373],[105.29,20.419],[105.261,20.437],[105.267,20.455],[105.244,20.474],[105.231,20.503],[105.201,20.518],[105.172,20.515],[105.162,20.535],[105.13,20.557],[105.079,20.578],[105.024,20.559],[104.963,20.608],[104.948,20.644],[104.898,20.671],[104.853,20.664],[104.847,20.652]]]},"properties":{"name":"Phú Thọ","level":"province"}},{"type":"Feature","geometry":{"type":"Polygon","coordinates":[[[107.459,13.922],[107.456,13.98],[107.414,13.994],[107.385,13.988],[107.358,14.018],[107.367,14.066],[107.334,14.101],[107.341,14.133],[107.376,14.178],[107.41,14.27],[107.391,14.326],[107.425,14.373],[107.419,14.407],[107.449,14.426],[107.46,14.406],[107.488,14.405],[107.504,14.458],[107.504,14.482],[107.532,14.554],[107.525,14.598],[107.555,14.66],[107.556,14.721],[107.542,14.749],[107.51,14.784],[107.541,14.826],[107.59,14.865],[107.583,14.893],[107.544,14.906],[107.53,14.928],[107.506,14.929],[107.479,14.957],[107.467,14.987],[107.473,15.02],[107.511,15.028],[107.544,15.049],[107.58,15.029],[107.621,15.051],[107.598,15.088],[107.623,15.109],[107.625,15.142],[107.584,15.201],[107.625,15.231],[107.615,15.288],[107.635,15.319],[107.61,15.335],[107.609,15.367],[107.595,15.382],[107.624,15.414],[107.662,15.384],[107.662,15.357],[107.729,15.286],[107.739,15.229],[107.829,15.209],[107.872,15.21],[107.891,15.193],[107.929,15.209],[107.95,15.175],[107.999,15.157],[108.004,15.142],[107.976,15.069],[107.955,15.058],[107.965,15.02],[107.992,14.998],[108.047,14.992],[108.088,14.951],[108.149,14.962],[108.162,14.974],[108.146,15.046],[108.177,15.06],[108.226,15.029],[108.298,15.17],[108.309,15.221],[108.29,15.234],[108.299,15.279],[108.322,15.302],[108.392,15.299],[108.412,15.316],[108.482,15.308],[108.508,15.326],[108.602,15.346],[108.655,15.369],[108.672,15.364],[108.721,15.375],[108.739,15.399],[108.777,15.384],[108.814,15.412],[108.828,15.376],[108.866,15.335],[108.869,15.301],[108.909,15.249],[108.941,15.227],[108.895,15.188],[108.903,15.085],[108.917,15.026],[108.951,14.93],[109.003,14.821],[109.078,14.702],[109.083,14.668],[109.065,14.65],[109.082,14.578],[109.044,14.608],[109.046,14.628],[109.017,14.665],[108.979,14.669],[108.926,14.698],[108.89,14.682],[108.835,14.69],[108.808,14.668],[108.762,14.667],[108.764,14.599],[108.733,14.588],[108.709,14.603],[108.64,14.563],[108.608,14.533],[108.593,14.564],[108.548,14.589],[108.529,14.556],[108.489,14.544],[108.438,14.555],[108.394,14.602],[108.358,14.58],[108.384,14.522],[108.298,14.418],[108.297,14.393],[108.267,14.386],[108.243,14.397],[108.203,14.375],[108.17,14.368],[108.152,14.349],[108.115,14.363],[108.073,14.305],[108.014,14.241],[107.933,14.241],[107.897,14.278],[107.84,14.271],[107.838,14.238],[107.818,14.214],[107.783,14.225],[107.763,14.203],[107.689,14.221],[107.671,14.176],[107.657,14.084],[107.636,14.055],[107.613,14.054],[107.6,14.028],[107.547,14.023],[107.521,14.006],[107.527,13.985],[107.469,13.953],[107.459,13.922]]]},"properties":{"name":"Quảng Ngãi","level":"province"}},{"type":"Feature","geometry":{"type":"MultiPolygon","coordinates":[[[[106.502,21.224],[106.529,21.223],[106.542,21.192],[106.58,21.192],[106.61,21.17],[106.641,21.181],[106.682,21.167],[106.795,21.149],[106.819,21.156],[106.825,21.188],[106.857,21.188],[106.874,21.174],[106.916,21.184],[106.93,21.171],[106.986,21.257],[106.972,21.284],[107.02,21.299],[107.032,21.325],[107.079,21.346],[107.097,21.374],[107.17,21.363],[107.217,21.388],[107.252,21.366],[107.265,21.4],[107.242,21.435],[107.246,21.482],[107.205,21.541],[107.217,21.552],[107.284,21.569],[107.294,21.592],[107.338,21.588],[107.362,21.6],[107.383,21.596],[107.417,21.64],[107.467,21.665],[107.482,21.657],[107.49,21.599],[107.543,21.589],[107.557,21.609],[107.59,21.607],[107.687,21.611],[107.783,21.655],[107.816,21.658],[107.834,21.643],[107.871,21.647],[107.899,21.593],[107.942,21.566],[107.952,21.54],[108.036,21.546],[108.041,21.492],[108.003,21.466],[107.978,21.436],[107.928,21.4],[107.884,21.438],[107.894,21.463],[107.849,21.459],[107.792,21.472],[107.765,21.447],[107.755,21.405],[107.676,21.381],[107.605,21.291],[107.5,21.292],[107.5,21.246],[107.527,21.223],[107.538,21.197],[107.581,21.207],[107.593,21.188],[107.532,21.136],[107.453,21.087],[107.412,21.052],[107.383,21.041],[107.357,21.001],[107.328,20.986],[107.25,20.998],[107.199,20.962],[107.199,20.935],[107.159,20.927],[107.146,20.942],[107.116,20.937],[107.059,20.958],[107.032,20.946],[106.988,20.957],[106.941,20.934],[106.94,20.916],[106.885,20.902],[106.866,20.869],[106.874,20.834],[106.833,20.812],[106.766,20.85],[106.753,20.879],[106.771,20.914],[106.769,20.971],[106.757,20.992],[106.686,21.005],[106.653,21.019],[106.634,21.011],[106.577,21.056],[106.533,21.047],[106.487,21.068],[106.458,21.065],[106.441,21.08],[106.462,21.115],[106.484,21.129],[106.483,21.161],[106.497,21.185],[106.502,21.224]]],[[[107.534,20.909],[107.495,20.861],[107.479,20.899],[107.521,20.917],[107.543,20.962],[107.561,20.934],[107.534,20.909]]],[[[107.516,20.923],[107.461,20.905],[107.446,20.93],[107.488,20.965],[107.485,20.988],[107.534,21.04],[107.548,20.995],[107.516,20.923]]],[[[107.581,21.112],[107.571,21.085],[107.537,21.071],[107.526,21.088],[107.549,21.114],[107.581,21.112]]],[[[107.778,20.973],[107.731,21],[107.744,21.022],[107.781,20.992],[107.778,20.973]]],[[[107.861,21.037],[107.82,20.982],[107.805,20.995],[107.839,21.044],[107.861,21.037]]],[[[107.928,21.361],[107.861,21.348],[107.855,21.378],[107.905,21.381],[107.973,21.398],[107.951,21.359],[107.928,21.361]]]]},"properties":{"name":"Quảng Ninh","level":"province"}},{"type":"Feature","geometry":{"type":"Polygon","coordinates":[[[105.635,17.991],[105.706,17.993],[105.73,18.033],[105.775,18.017],[105.809,18.025],[105.834,18.045],[105.839,18.066],[105.868,18.066],[105.896,18.09],[105.932,18.089],[105.953,18.057],[105.986,18.064],[106.023,18.024],[106.05,18.022],[106.076,17.991],[106.048,17.965],[106.046,17.947],[106.078,17.933],[106.173,17.915],[106.241,17.93],[106.264,17.914],[106.306,17.962],[106.339,17.991],[106.359,17.991],[106.423,17.97],[106.444,17.952],[106.511,17.96],[106.513,17.939],[106.483,17.921],[106.45,17.867],[106.445,17.833],[106.466,17.754],[106.514,17.661],[106.59,17.544],[106.65,17.458],[106.72,17.382],[106.816,17.296],[107.012,17.149],[107.116,17.084],[107.111,17.02],[107.142,16.964],[107.231,16.87],[107.309,16.802],[107.389,16.743],[107.37,16.734],[107.358,16.699],[107.319,16.662],[107.311,16.625],[107.317,16.595],[107.271,16.566],[107.245,16.587],[107.154,16.575],[107.062,16.537],[107.067,16.511],[107.12,16.487],[107.136,16.456],[107.125,16.442],[107.059,16.448],[107.065,16.41],[107.05,16.382],[107.016,16.361],[107.026,16.313],[107.004,16.316],[106.97,16.302],[106.962,16.359],[106.938,16.364],[106.898,16.392],[106.896,16.412],[106.871,16.435],[106.887,16.449],[106.878,16.483],[106.89,16.511],[106.874,16.533],[106.831,16.549],[106.829,16.522],[106.805,16.475],[106.771,16.468],[106.771,16.431],[106.734,16.427],[106.702,16.436],[106.675,16.474],[106.647,16.54],[106.672,16.562],[106.649,16.593],[106.598,16.606],[106.567,16.651],[106.552,16.694],[106.551,16.867],[106.519,16.889],[106.516,16.914],[106.548,16.926],[106.55,16.998],[106.516,16.971],[106.438,16.995],[106.423,17.032],[106.402,17.051],[106.406,17.089],[106.373,17.111],[106.356,17.156],[106.327,17.181],[106.324,17.217],[106.305,17.268],[106.305,17.291],[106.275,17.296],[106.278,17.267],[106.232,17.251],[106.15,17.311],[106.119,17.346],[106.093,17.359],[105.863,17.625],[105.845,17.628],[105.817,17.66],[105.782,17.675],[105.751,17.669],[105.743,17.722],[105.727,17.746],[105.692,17.77],[105.679,17.81],[105.685,17.824],[105.658,17.853],[105.622,17.871],[105.635,17.991]]]},"properties":{"name":"Quảng Trị","level":"province"}},{"type":"Feature","geometry":{"type":"Polygon","coordinates":[[[103.217,20.895],[103.246,20.892],[103.29,20.908],[103.277,20.938],[103.3,20.964],[103.292,21.017],[103.275,21.057],[103.302,21.063],[103.294,21.099],[103.335,21.091],[103.371,21.063],[103.424,21.071],[103.402,21.105],[103.396,21.151],[103.438,21.191],[103.431,21.252],[103.441,21.282],[103.433,21.311],[103.399,21.317],[103.372,21.341],[103.363,21.372],[103.34,21.4],[103.342,21.428],[103.392,21.437],[103.443,21.432],[103.457,21.458],[103.452,21.502],[103.464,21.52],[103.517,21.533],[103.519,21.565],[103.56,21.627],[103.557,21.656],[103.586,21.7],[103.573,21.74],[103.541,21.777],[103.548,21.799],[103.522,21.861],[103.495,21.875],[103.48,21.909],[103.497,21.97],[103.525,22.025],[103.608,22.012],[103.658,21.982],[103.683,21.921],[103.701,21.91],[103.721,21.871],[103.696,21.838],[103.716,21.813],[103.76,21.808],[103.807,21.737],[103.826,21.735],[103.838,21.706],[103.872,21.686],[103.882,21.709],[103.922,21.701],[103.937,21.67],[103.982,21.678],[104.027,21.672],[104.088,21.643],[104.16,21.656],[104.196,21.648],[104.212,21.671],[104.339,21.653],[104.319,21.62],[104.291,21.603],[104.298,21.571],[104.277,21.551],[104.293,21.525],[104.282,21.472],[104.299,21.439],[104.332,21.408],[104.354,21.415],[104.412,21.387],[104.421,21.36],[104.474,21.352],[104.504,21.376],[104.529,21.413],[104.579,21.409],[104.589,21.423],[104.647,21.383],[104.686,21.377],[104.69,21.401],[104.735,21.403],[104.749,21.352],[104.779,21.326],[104.814,21.333],[104.843,21.311],[104.84,21.265],[104.864,21.205],[104.853,21.153],[104.897,21.13],[104.854,21.068],[104.869,21.03],[104.89,21.01],[104.903,20.978],[104.941,20.931],[104.977,20.906],[105.007,20.843],[104.998,20.818],[105.025,20.802],[104.991,20.754],[104.986,20.722],[104.925,20.743],[104.883,20.767],[104.838,20.748],[104.847,20.652],[104.82,20.639],[104.797,20.612],[104.801,20.585],[104.741,20.575],[104.716,20.606],[104.685,20.611],[104.639,20.655],[104.636,20.673],[104.592,20.676],[104.581,20.704],[104.552,20.722],[104.524,20.702],[104.496,20.715],[104.483,20.765],[104.419,20.796],[104.396,20.821],[104.369,20.825],[104.313,20.904],[104.281,20.928],[104.214,20.939],[104.187,20.957],[104.131,20.949],[104.121,20.972],[104.052,20.952],[104.05,20.916],[104.029,20.903],[103.977,20.912],[103.959,20.898],[103.899,20.906],[103.849,20.862],[103.827,20.872],[103.805,20.854],[103.808,20.823],[103.78,20.803],[103.791,20.75],[103.771,20.735],[103.733,20.734],[103.737,20.67],[103.695,20.662],[103.674,20.669],[103.666,20.701],[103.583,20.75],[103.551,20.745],[103.507,20.755],[103.464,20.828],[103.433,20.798],[103.4,20.784],[103.349,20.804],[103.287,20.838],[103.267,20.823],[103.238,20.834],[103.235,20.874],[103.217,20.895]]]},"properties":{"name":"Sơn La","level":"province"}},{"type":"Feature","geometry":{"type":"Polygon","coordinates":[[[105.499,10.953],[105.537,10.952],[105.668,10.988],[105.718,11.021],[105.78,11.031],[105.809,10.973],[105.864,10.9],[105.85,10.864],[105.899,10.845],[105.973,10.893],[106.011,10.855],[106.07,10.813],[106.095,10.808],[106.163,10.812],[106.187,10.838],[106.14,10.915],[106.153,10.941],[106.156,10.983],[106.204,10.977],[106.187,11.051],[106.154,11.101],[106.106,11.071],[106.053,11.124],[106.024,11.139],[106.014,11.191],[105.966,11.195],[105.926,11.217],[105.911,11.24],[105.908,11.283],[105.864,11.287],[105.883,11.368],[105.871,11.404],[105.901,11.428],[105.877,11.476],[105.884,11.537],[105.862,11.566],[105.818,11.57],[105.809,11.602],[105.833,11.625],[105.837,11.648],[105.888,11.677],[105.953,11.639],[105.981,11.669],[106.004,11.707],[106.009,11.75],[106.023,11.775],[106.071,11.776],[106.105,11.747],[106.153,11.736],[106.189,11.753],[106.215,11.728],[106.265,11.721],[106.298,11.681],[106.338,11.681],[106.371,11.696],[106.414,11.677],[106.452,11.671],[106.47,11.614],[106.49,11.571],[106.475,11.549],[106.441,11.546],[106.427,11.533],[106.424,11.495],[106.412,11.473],[106.375,11.454],[106.351,11.377],[106.331,11.353],[106.354,11.288],[106.351,11.249],[106.371,11.245],[106.389,11.212],[106.388,11.185],[106.427,11.171],[106.446,11.136],[106.413,11.009],[106.356,10.992],[106.373,10.97],[106.412,10.974],[106.454,10.941],[106.533,10.9],[106.505,10.789],[106.464,10.757],[106.492,10.724],[106.52,10.724],[106.556,10.651],[106.609,10.657],[106.641,10.627],[106.685,10.651],[106.73,10.636],[106.719,10.606],[106.742,10.565],[106.749,10.531],[106.744,10.5],[106.705,10.471],[106.68,10.439],[106.639,10.479],[106.625,10.451],[106.585,10.436],[106.589,10.418],[106.529,10.433],[106.481,10.404],[106.426,10.414],[106.427,10.434],[106.451,10.453],[106.404,10.492],[106.371,10.488],[106.369,10.518],[106.318,10.571],[106.286,10.587],[106.205,10.579],[106.101,10.576],[106.102,10.523],[105.91,10.539],[105.835,10.638],[105.781,10.659],[105.596,10.831],[105.613,10.832],[105.583,10.892],[105.516,10.922],[105.499,10.953]]]},"properties":{"name":"Tây Ninh","level":"province"}},{"type":"Feature","geometry":{"type":"Polygon","coordinates":[[[105.543,21.574],[105.497,21.618],[105.482,21.679],[105.509,21.75],[105.494,21.78],[105.497,21.832],[105.528,21.835],[105.518,21.876],[105.553,21.909],[105.552,21.963],[105.532,21.969],[105.495,22.01],[105.488,22.048],[105.464,22.077],[105.465,22.121],[105.493,22.158],[105.463,22.169],[105.434,22.209],[105.436,22.259],[105.473,22.274],[105.479,22.308],[105.514,22.348],[105.518,22.4],[105.551,22.422],[105.56,22.463],[105.589,22.485],[105.598,22.523],[105.578,22.559],[105.552,22.576],[105.532,22.633],[105.564,22.666],[105.603,22.667],[105.601,22.687],[105.642,22.7],[105.663,22.723],[105.7,22.72],[105.739,22.742],[105.773,22.684],[105.729,22.634],[105.778,22.577],[105.773,22.562],[105.804,22.524],[105.857,22.521],[105.911,22.496],[105.932,22.528],[105.969,22.535],[106.059,22.571],[106.082,22.573],[106.102,22.516],[106.119,22.511],[106.12,22.472],[106.094,22.442],[106.111,22.399],[106.14,22.394],[106.168,22.409],[106.185,22.387],[106.22,22.35],[106.2,22.314],[106.212,22.29],[106.247,22.258],[106.237,22.221],[106.221,22.207],[106.232,22.174],[106.189,22.14],[106.157,22.082],[106.123,22.085],[106.099,22.068],[106.115,21.978],[106.103,21.94],[106.132,21.917],[106.095,21.821],[106.114,21.781],[106.135,21.785],[106.15,21.761],[106.238,21.715],[106.227,21.682],[106.191,21.645],[106.185,21.604],[106.162,21.625],[106.117,21.617],[106.1,21.625],[106.059,21.604],[106.049,21.581],[106.054,21.539],[106.038,21.49],[106.051,21.46],[106.027,21.434],[106.027,21.399],[105.979,21.414],[105.94,21.397],[105.936,21.371],[105.909,21.374],[105.881,21.339],[105.893,21.327],[105.859,21.338],[105.853,21.362],[105.8,21.385],[105.785,21.36],[105.756,21.41],[105.73,21.409],[105.704,21.441],[105.653,21.457],[105.556,21.571],[105.543,21.574]]]},"properties":{"name":"Thái Nguyên","level":"province"}},{"type":"Feature","geometry":{"type":"Polygon","coordinates":[[[104.92,19.996],[104.935,20.036],[104.974,20.063],[104.992,20.094],[104.922,20.141],[104.86,20.143],[104.773,20.199],[104.718,20.202],[104.662,20.233],[104.633,20.229],[104.613,20.245],[104.622,20.367],[104.684,20.404],[104.686,20.443],[104.657,20.475],[104.625,20.462],[104.613,20.427],[104.565,20.417],[104.474,20.369],[104.421,20.377],[104.381,20.443],[104.375,20.465],[104.388,20.488],[104.415,20.489],[104.476,20.517],[104.493,20.541],[104.528,20.556],[104.542,20.598],[104.562,20.608],[104.602,20.606],[104.627,20.626],[104.639,20.655],[104.685,20.611],[104.716,20.606],[104.741,20.575],[104.801,20.585],[104.797,20.612],[104.82,20.639],[104.847,20.652],[104.853,20.664],[104.898,20.671],[104.948,20.644],[104.963,20.608],[105.024,20.559],[105.079,20.578],[105.13,20.557],[105.162,20.535],[105.172,20.515],[105.201,20.518],[105.231,20.503],[105.244,20.474],[105.267,20.455],[105.261,20.437],[105.29,20.419],[105.406,20.373],[105.437,20.384],[105.5,20.361],[105.543,20.362],[105.549,20.335],[105.579,20.312],[105.604,20.308],[105.621,20.282],[105.65,20.274],[105.701,20.218],[105.741,20.185],[105.793,20.17],[105.869,20.125],[105.925,20.101],[105.959,20.067],[106.023,20.059],[106.072,20.067],[106.054,20.007],[106.024,19.976],[106.026,19.96],[105.968,19.935],[105.953,19.919],[105.96,19.885],[105.941,19.854],[105.931,19.814],[105.934,19.782],[105.895,19.721],[105.867,19.722],[105.845,19.683],[105.813,19.573],[105.807,19.506],[105.811,19.436],[105.785,19.399],[105.789,19.368],[105.819,19.314],[105.805,19.287],[105.768,19.292],[105.737,19.318],[105.715,19.303],[105.684,19.305],[105.668,19.34],[105.642,19.353],[105.628,19.38],[105.591,19.37],[105.583,19.39],[105.525,19.464],[105.469,19.456],[105.445,19.441],[105.429,19.455],[105.389,19.456],[105.345,19.542],[105.309,19.489],[105.277,19.494],[105.267,19.53],[105.281,19.563],[105.282,19.604],[105.246,19.657],[105.211,19.662],[105.164,19.685],[105.161,19.716],[105.134,19.743],[105.128,19.801],[105.152,19.856],[105.188,19.868],[105.169,19.914],[105.106,19.936],[105.057,19.93],[104.976,19.976],[104.958,19.993],[104.92,19.996]]]},"properties":{"name":"Thanh Hóa","level":"province"}},{"type":"Feature","geometry":{"type":"Polygon","coordinates":[[[106.823,10.377],[106.757,10.463],[106.744,10.5],[106.749,10.531],[106.742,10.565],[106.719,10.606],[106.73,10.636],[106.685,10.651],[106.641,10.627],[106.609,10.657],[106.556,10.651],[106.52,10.724],[106.492,10.724],[106.464,10.757],[106.505,10.789],[106.533,10.9],[106.454,10.941],[106.412,10.974],[106.373,10.97],[106.356,10.992],[106.413,11.009],[106.446,11.136],[106.427,11.171],[106.388,11.185],[106.389,11.212],[106.371,11.245],[106.351,11.249],[106.354,11.288],[106.331,11.353],[106.351,11.377],[106.375,11.454],[106.412,11.473],[106.424,11.495],[106.489,11.5],[106.54,11.468],[106.573,11.457],[106.546,11.434],[106.553,11.373],[106.613,11.387],[106.616,11.363],[106.671,11.354],[106.679,11.385],[106.753,11.447],[106.754,11.477],[106.791,11.492],[106.805,11.45],[106.779,11.427],[106.774,11.399],[106.785,11.38],[106.855,11.377],[106.859,11.315],[106.885,11.34],[106.93,11.355],[106.951,11.322],[106.911,11.241],[106.918,11.221],[106.906,11.194],[106.933,11.189],[106.954,11.163],[106.965,11.108],[106.947,11.09],[106.907,11.022],[106.873,11.02],[106.84,11.04],[106.829,11.064],[106.802,11.06],[106.808,11.026],[106.775,11.005],[106.796,10.974],[106.769,10.952],[106.816,10.904],[106.838,10.903],[106.857,10.843],[106.88,10.817],[106.867,10.791],[106.824,10.76],[106.776,10.749],[106.754,10.725],[106.757,10.694],[106.807,10.657],[106.824,10.629],[106.873,10.648],[106.941,10.597],[106.984,10.579],[106.999,10.635],[107.044,10.657],[107.097,10.652],[107.134,10.685],[107.139,10.741],[107.189,10.772],[107.207,10.758],[107.3,10.755],[107.316,10.669],[107.346,10.676],[107.361,10.728],[107.444,10.804],[107.471,10.793],[107.483,10.771],[107.505,10.771],[107.505,10.748],[107.544,10.706],[107.539,10.676],[107.568,10.619],[107.571,10.568],[107.516,10.503],[107.471,10.499],[107.445,10.469],[107.367,10.467],[107.3,10.429],[107.26,10.383],[107.239,10.379],[107.207,10.406],[107.166,10.4],[107.107,10.356],[107.087,10.324],[107.055,10.374],[107.092,10.388],[107.118,10.417],[107.113,10.436],[107.074,10.433],[107.041,10.466],[106.997,10.46],[106.966,10.446],[106.986,10.413],[106.971,10.395],[106.895,10.365],[106.835,10.354],[106.823,10.377]]]},"properties":{"name":"TP. Hồ Chí Minh","level":"province"}},{"type":"Feature","geometry":{"type":"Polygon","coordinates":[[[105.086,21.718],[105.061,21.744],[105.081,21.771],[105.089,21.807],[105.037,21.891],[105.018,21.894],[105.019,21.936],[104.987,21.943],[105,21.989],[104.99,22.003],[104.997,22.044],[104.947,22.036],[104.942,22.052],[104.887,22.071],[104.865,22.097],[104.862,22.147],[104.846,22.185],[104.813,22.173],[104.757,22.173],[104.725,22.198],[104.722,22.257],[104.677,22.265],[104.607,22.291],[104.574,22.245],[104.553,22.242],[104.543,22.277],[104.58,22.306],[104.547,22.362],[104.55,22.38],[104.491,22.42],[104.466,22.425],[104.451,22.463],[104.474,22.484],[104.418,22.525],[104.425,22.574],[104.466,22.575],[104.462,22.613],[104.412,22.639],[104.398,22.681],[104.366,22.673],[104.335,22.69],[104.342,22.711],[104.352,22.692],[104.399,22.702],[104.423,22.737],[104.471,22.758],[104.514,22.79],[104.531,22.821],[104.577,22.854],[104.656,22.834],[104.673,22.817],[104.703,22.827],[104.753,22.857],[104.778,22.905],[104.862,22.943],[104.866,22.962],[104.83,22.998],[104.801,23.115],[104.839,23.115],[104.876,23.126],[104.882,23.165],[104.908,23.181],[104.948,23.166],[104.962,23.199],[105.024,23.219],[105.051,23.248],[105.083,23.267],[105.107,23.246],[105.156,23.267],[105.171,23.289],[105.227,23.261],[105.259,23.32],[105.322,23.392],[105.348,23.37],[105.371,23.319],[105.421,23.285],[105.451,23.279],[105.493,23.232],[105.498,23.203],[105.553,23.187],[105.574,23.16],[105.565,23.119],[105.527,23.108],[105.52,23.075],[105.488,23.009],[105.441,23.004],[105.362,22.979],[105.362,22.94],[105.312,22.916],[105.301,22.856],[105.329,22.832],[105.387,22.81],[105.45,22.759],[105.47,22.756],[105.499,22.634],[105.532,22.633],[105.552,22.576],[105.578,22.559],[105.598,22.523],[105.589,22.485],[105.56,22.463],[105.551,22.422],[105.518,22.4],[105.514,22.348],[105.479,22.308],[105.473,22.274],[105.436,22.259],[105.434,22.209],[105.463,22.169],[105.493,22.158],[105.465,22.121],[105.464,22.077],[105.488,22.048],[105.495,22.01],[105.532,21.969],[105.552,21.963],[105.553,21.909],[105.518,21.876],[105.528,21.835],[105.497,21.832],[105.494,21.78],[105.509,21.75],[105.482,21.679],[105.497,21.618],[105.543,21.574],[105.523,21.538],[105.485,21.518],[105.428,21.504],[105.381,21.523],[105.306,21.509],[105.273,21.562],[105.256,21.575],[105.209,21.661],[105.178,21.687],[105.157,21.686],[105.086,21.718]]]},"properties":{"name":"Tuyên Quang","level":"province"}},{"type":"Feature","geometry":{"type":"Polygon","coordinates":[[[105.682,10.134],[105.728,10.205],[105.775,10.189],[105.801,10.155],[105.818,10.15],[105.87,10.154],[105.876,10.189],[105.913,10.192],[105.92,10.211],[105.877,10.264],[105.927,10.284],[105.975,10.329],[105.995,10.329],[106.035,10.299],[106.077,10.278],[106.143,10.284],[106.203,10.313],[106.288,10.331],[106.312,10.321],[106.368,10.34],[106.402,10.334],[106.448,10.306],[106.477,10.307],[106.542,10.266],[106.59,10.251],[106.691,10.231],[106.709,10.212],[106.754,10.191],[106.789,10.152],[106.789,10.106],[106.734,10.04],[106.697,10.027],[106.651,9.979],[106.649,9.936],[106.688,9.884],[106.659,9.833],[106.564,9.742],[106.581,9.666],[106.558,9.617],[106.526,9.577],[106.488,9.551],[106.413,9.529],[106.372,9.531],[106.368,9.549],[106.309,9.595],[106.3,9.586],[106.248,9.617],[106.172,9.686],[106.1,9.76],[106.069,9.779],[106.023,9.826],[105.996,9.866],[105.962,9.901],[105.919,9.931],[105.877,9.951],[105.826,10.005],[105.781,10.07],[105.682,10.134]]]},"properties":{"name":"Vĩnh Long","level":"province"}}]}